GLOBALSTAR M068 [-]     
1 32266U 07048D   24078.47370994 -.00000043  00000+0  33582-3 0  9993
2 32266  51.9866 251.3757 0000960 156.4680 222.3241 12.62782287759980
GLOBALSTAR M079 [+]     
1 37188U 10054A   24078.32380789 -.00000102  00000+0  11084-4 0  9999
2 37188  52.0030  87.5061 0000435  68.7357  34.2357 12.62267405618884
GLOBALSTAR M074 [+]     
1 37189U 10054B   24078.35079672 -.00000109  00000+0 -30779-4 0  9999
2 37189  52.0005  86.8176 0000362 107.0150 358.1554 12.62266178619494
GLOBALSTAR M076 [+]     
1 37190U 10054C   24078.21331677 -.00000101  00000+0  15750-4 0  9995
2 37190  52.0018  87.3662 0000867  90.7194 349.1699 12.62275555619198
GLOBALSTAR M077 [+]     
1 37191U 10054D   24078.29418035 -.00000100  00000+0  21500-4 0  9997
2 37191  52.0087  43.8442 0000443  90.6849  56.4755 12.62270182619578
GLOBALSTAR M075 [+]     
1 37192U 10054E   24078.46977757 -.00000102  00000+0  11346-4 0  9997
2 37192  51.9933 129.0981 0000410  99.8304   5.8337 12.62271745618459
GLOBALSTAR M073 [+]     
1 37193U 10054F   24078.23191814 -.00000104  00000+0 -18256-5 0  9996
2 37193  52.0075  43.2883 0000538  77.9968  27.4399 12.62262451620254
GLOBALSTAR M083 [+]     
1 37739U 11033A   24078.17527010 -.00000080  00000+0  13001-3 0  9997
2 37739  51.9888 352.8189 0000448  57.3357  90.5140 12.62266654589261
GLOBALSTAR M088 [+]     
1 37740U 11033B   24078.51612141 -.00000077  00000+0  15203-3 0  9999
2 37740  51.9713 257.6551 0000716  80.1920 297.8689 12.62266177584853
GLOBALSTAR M091 [+]     
1 37741U 11033C   24078.79531774 -.00000084  00000+0  11154-3 0  9991
2 37741  51.9981 219.5431 0000604  82.5419  65.1106 12.62272517585935
GLOBALSTAR M085 [+]     
1 37742U 11033D   24078.45075898 -.00000099  00000+0  25561-4 0  9999
2 37742  51.9858 172.0365 0000425  96.8811 343.4372 12.62268657586144
GLOBALSTAR M081 [+]     
1 37743U 11033E   24078.47717014 -.00000102  00000+0  10241-4 0  9999
2 37743  51.9951 174.4608 0000591  82.4165 358.5738 12.62270562586299
GLOBALSTAR M089 [+]     
1 37744U 11033F   24078.44251573 -.00000096  00000+0  43562-4 0  9994
2 37744  51.9919 128.8820 0000883 106.2599 356.2230 12.62272429587133
GLOBALSTAR M084 [+]     
1 38040U 11080A   24077.97577233 -.00000079  00000+0  13694-3 0  9990
2 38040  52.0039 357.3474 0000830  91.3756 349.5906 12.62272112565054
GLOBALSTAR M080 [+]     
1 38041U 11080B   24078.20164503 -.00000089  00000+0  81617-4 0  9992
2 38041  52.0091 358.1075 0000989  85.4966  61.4885 12.62269815565200
GLOBALSTAR M082 [+]     
1 38042U 11080C   24078.05664753 -.00000073  00000+0  16960-3 0  9999
2 38042  52.0085 313.9491 0000171  47.2030 100.7064 12.62267024565897
GLOBALSTAR M092 [+]     
1 38043U 11080D   24078.87266917 -.00000104  00000+0  43486-7 0  9992
2 38043  52.0099  41.8126 0000474 109.7000 267.9323 12.62276749564664
GLOBALSTAR M090 [+]     
1 38044U 11080E   24078.86046634 -.00000075  00000+0  16035-3 0  9997
2 38044  51.9889 305.8961 0000509  69.9354  13.5151 12.62267278566155
GLOBALSTAR M086 [+]     
1 38045U 11080F   24078.02997870 -.00000071  00000+0  18201-3 0  9996
2 38045  51.9903 308.9417 0001519  51.6751  95.4785 12.62268439565953
GLOBALSTAR M097 [+]     
1 39072U 13005A   24078.81591811 -.00000098  00000+0  34672-4 0  9998
2 39072  52.0031 220.6294 0000666  81.4409 278.6533 12.62261706513380
GLOBALSTAR M093 [+]     
1 39073U 13005B   24078.78934988 -.00000081  00000+0  12779-3 0  9996
2 39073  51.9795 214.7412 0000649  75.5303 284.5635 12.62262259513372
GLOBALSTAR M094 [+]     
1 39074U 13005C   24078.31429760 -.00000103  00000+0  42117-5 0  9999
2 39074  51.9945 130.1158 0000357  84.4011 275.6896 12.62263751514806
GLOBALSTAR M096 [+]     
1 39075U 13005D   24078.48576734 -.00000096  00000+0  44727-4 0  9991
2 39075  52.0066 177.7511 0000489  83.8059 276.2864 12.62273557513743
GLOBALSTAR M078 [+]     
1 39076U 13005E   24078.53908945 -.00000083  00000+0  11662-3 0  9998
2 39076  51.9854 262.7229 0000406 208.3481 151.7364 12.62261334512370
GLOBALSTAR M095 [+]     
1 39077U 13005F   24078.48576894 -.00000083  00000+0  11498-3 0  9994
2 39077  51.9782 260.3041 0000247  59.4542 300.6349 12.62264663512223
GLOBALSTAR M087 [+]     
1 52888U 22064A   24078.39511466 -.00000101  00000+0  52008-4 0  9992
2 52888  51.9750 164.9678 0010009 132.6590 227.5155 13.37567610 85376
